$$SOE
2460728.500000000, A.D. 2025-Feb-22 00:00:00.0000, 2.587779593922999E+08, -8.134874794891191E+07, 1.553135902558076E+07,
2460735.500000000, A.D. 2025-Mar-01 00:00:00.0000, 2.641270250109313E+08, -6.753337165130210E+07, 1.381806877321673E+07,
2460742.500000000, A.D. 2025-Mar-08 00:00:00.0000, 2.688459570163013E+08, -5.355681825442486E+07, 1.207179921923739E+07,
2460749.500000000, A.D. 2025-Mar-15 00:00:00.0000, 2.729333981217890E+08, -3.945439394014519E+07, 1.029715983445701E+07,
2460756.500000000, A.D. 2025-Mar-22 00:00:00.0000, 2.763906050856635E+08, -2.526078230061997E+07, 8.498727955393752E+06,
2460763.500000000, A.D. 2025-Mar-29 00:00:00.0000, 2.792213010161662E+08, -1.100981767763704E+07, 6.681015970741066E+06,
2460770.500000000, A.D. 2025-Apr-05 00:00:00.0000, 2.814315080861650E+08, 3.265714771608442E+06, 4.848441649482883E+06,
2460777.500000000, A.D. 2025-Apr-12 00:00:00.0000, 2.830293640052098E+08, 1.753425092872543E+07, 3.005302086832415E+06,
2460784.500000000, A.D. 2025-Apr-19 00:00:00.0000, 2.840249272010698E+08, 3.176559012115854E+07, 1.155751373451572E+06,
2460791.500000000, A.D. 2025-Apr-26 00:00:00.0000, 2.844299758120469E+08, 4.593100825841378E+07, -6.962180129384827E+05,
2460798.500000000, A.D. 2025-May-03 00:00:00.0000, 2.842578049919608E+08, 6.000334282797742E+07, -2.546790166131217E+06,
2460805.500000000, A.D. 2025-May-10 00:00:00.0000, 2.835230264126366E+08, 7.395705145657729E+07, -4.392337212551426E+06,
2460812.500000000, A.D. 2025-May-17 00:00:00.0000, 2.822413732737947E+08, 8.776824613031490E+07, -6.229427500322089E+06,
2460819.500000000, A.D. 2025-May-24 00:00:00.0000, 2.804295136683105E+08, 1.014147054486548E+08, -8.054830805638939E+06,
2460826.500000000, A.D. 2025-May-31 00:00:00.0000, 2.781048748031199E+08, 1.148758678147613E+08, -9.865520872030638E+06,
2460833.500000000, A.D. 2025-Jun-07 00:00:00.0000, 2.752854791891918E+08, 1.281328094138541E+08, -1.165867546692697E+07,
2460840.500000000, A.D. 2025-Jun-14 00:00:00.0000, 2.719897914515943E+08, 1.411682089386728E+08, -1.343167411523859E+07,
2460847.500000000, A.D. 2025-Jun-21 00:00:00.0000, 2.682365775682167E+08, 1.539662983031449E+08, -1.518209420731872E+07,
2460854.500000000, A.D. 2025-Jun-28 00:00:00.0000, 2.640447798609996E+08, 1.665128034451686E+08, -1.690770592968524E+07,
2460861.500000000, A.D. 2025-Jul-05 00:00:00.0000, 2.594334060938255E+08, 1.787948795194249E+08, -1.860646598686112E+07,
2460868.500000000, A.D. 2025-Jul-12 00:00:00.0000, 2.544214311123705E+08, 1.908010416038811E+08, -2.027651033031826E+07,
2460875.500000000, A.D. 2025-Jul-19 00:00:00.0000, 2.490277106519104E+08, 2.025210920435700E+08, -2.191614619246913E+07,
2460882.500000000, A.D. 2025-Jul-26 00:00:00.0000, 2.432709068191166E+08, 2.139460458430348E+08, -2.352384365614915E+07,
2460889.500000000, A.D. 2025-Aug-02 00:00:00.0000, 2.371694245136650E+08, 2.250680553730178E+08, -2.509822694322762E+07,
2460896.500000000, A.D. 2025-Aug-09 00:00:00.0000, 2.307413579539702E+08, 2.358803354088656E+08, -2.663806557824605E+07,
2460903.500000000, A.D. 2025-Aug-16 00:00:00.0000, 2.240044464941454E+08, 2.463770892769870E+08, -2.814226556582946E+07,
2460910.500000000, A.D. 2025-Aug-23 00:00:00.0000, 2.169760391311967E+08, 2.565534367987794E+08, -2.960986071020830E+07,
2460917.500000000, A.D. 2025-Aug-30 00:00:00.0000, 2.096730671617084E+08, 2.664053452749824E+08, -3.104000413201593E+07,
2460924.500000000, A.D. 2025-Sep-06 00:00:00.0000, 2.021120227394617E+08, 2.759295649062533E+08, -3.243195983674887E+07,
2460931.500000000, A.D. 2025-Sep-13 00:00:00.0000, 1.943089408780752E+08, 2.851235664519951E+08, -3.378509443503779E+07,
2460938.500000000, A.D. 2025-Sep-20 00:00:00.0000, 1.862793874520799E+08, 2.939854796764098E+08, -3.509886948958147E+07,
2460945.500000000, A.D. 2025-Sep-27 00:00:00.0000, 1.780384535903538E+08, 3.025140357897822E+08, -3.637283435974747E+07,
2460952.500000000, A.D. 2025-Oct-04 00:00:00.0000, 1.696007538251731E+08, 3.107085144495766E+08, -3.760661933013709E+07,
2460959.500000000, A.D. 2025-Oct-11 00:00:00.0000, 1.609804270588920E+08, 3.185686943559154E+08, -3.879992907296419E+07,
2460966.500000000, A.D. 2025-Oct-18 00:00:00.0000, 1.521911401251690E+08, 3.260948071049343E+08, -3.995253649366388E+07,
2460973.500000000, A.D. 2025-Oct-25 00:00:00.0000, 1.432460936319687E+08, 3.332874942171221E+08, -4.106427696760921E+07,
2460980.500000000, A.D. 2025-Nov-01 00:00:00.0000, 1.341580297245747E+08, 3.401477672381825E+08, -4.213504296231410E+07,
2460987.500000000, A.D. 2025-Nov-08 00:00:00.0000, 1.249392414494857E+08, 3.466769707456120E+08, -4.316477903981578E+07,
2460994.500000000, A.D. 2025-Nov-15 00:00:00.0000, 1.156015835570380E+08, 3.528767480552105E+08, -4.415347724420781E+07,
2461001.500000000, A.D. 2025-Nov-22 00:00:00.0000, 1.061564848754276E+08, 3.587490096936779E+08, -4.510117287832440E+07,
2461008.500000000, A.D. 2025-Nov-29 00:00:00.0000, 9.661496187051576E+07, 3.642959056148187E+08, -4.600794054699488E+07,
2461015.500000000, A.D. 2025-Dec-06 00:00:00.0000, 8.698763091396438E+07, 3.695198008595011E+08, -4.687389025139004E+07,
2461022.500000000, A.D. 2025-Dec-13 00:00:00.0000, 7.728471951487343E+07, 3.744232511257815E+08, -4.769916382982209E+07,
2461029.500000000, A.D. 2025-Dec-20 00:00:00.0000, 6.751607985637450E+07, 3.790089791242021E+08, -4.848393196473584E+07,
2461036.500000000, A.D. 2025-Dec-27 00:00:00.0000, 5.769120343995792E+07, 3.832798541646888E+08, -4.922839142974114E+07,
2461043.500000000, A.D. 2026-Jan-03 00:00:00.0000, 4.781923527226432E+07, 3.872388742171276E+08, -4.993276247642490E+07,
2461050.500000000, A.D. 2026-Jan-10 00:00:00.0000, 3.790898761517713E+07, 3.908891496338341E+08, -5.059728641074793E+07,
2461057.500000000, A.D. 2026-Jan-17 00:00:00.0000, 2.796895345987902E+07, 3.942338883178029E+08, -5.122222337314558E+07,
2461064.500000000, A.D. 2026-Jan-24 00:00:00.0000, 1.800731974521676E+07, 3.972763822415432E+08, -5.180785031347229E+07,
2461071.500000000, A.D. 2026-Jan-31 00:00:00.0000, 8.031980297859415E+06, 4.000199951976250E+08, -5.235445914979570E+07,
2461078.500000000, A.D. 2026-Feb-07 00:00:00.0000, -1.949451480677490E+06, 4.024681516186841E+08, -5.286235510807620E+07,
2461085.500000000, A.D. 2026-Feb-14 00:00:00.0000, -1.192962995567354E+07, 4.046243263535757E+08, -5.333185525453153E+07,
2461092.500000000, A.D. 2026-Feb-21 00:00:00.0000, -2.190146426391773E+07, 4.064920358863391E+08, -5.376328719737089E+07,
2461099.500000000, A.D. 2026-Feb-28 00:00:00.0000, -3.185810608127303E+07, 4.080748320688901E+08, -5.415698775372493E+07,
2461106.500000000, A.D. 2026-Mar-07 00:00:00.0000, -4.179294021952210E+07, 4.093762963377917E+08, -5.451330154184143E+07,
2461113.500000000, A.D. 2026-Mar-14 00:00:00.0000, -5.169957528426110E+07, 4.104000320060294E+08, -5.483257993280768E+07,
2461120.500000000, A.D. 2026-Mar-21 00:00:00.0000, -6.157183261624513E+07, 4.111496574643530E+08, -5.511518028037111E+07,
2461127.500000000, A.D. 2026-Mar-28 00:00:00.0000, -7.140373552334332E+07, 4.116288012628405E+08, -5.536146515342732E+07,
2461134.500000000, A.D. 2026-Apr-04 00:00:00.0000, -8.118949940227683E+07, 4.118410980504310E+08, -5.557180158707398E+07,
2461141.500000000, A.D. 2026-Apr-11 00:00:00.0000, -9.092352247055776E+07, 4.117901849608873E+08, -5.574656039968863E+07,
2461148.500000000, A.D. 2026-Apr-18 00:00:00.0000, -1.006003769413801E+08, 4.114796983917375E+08, -5.588611558477466E+07,
2461155.500000000, A.D. 2026-Apr-25 00:00:00.0000, -1.102148005854507E+08, 4.109132711474810E+08, -5.599084377442032E+07,
2461162.500000000, A.D. 2026-May-02 00:00:00.0000, -1.197616886376517E+08, 4.100945298763573E+08, -5.606112377343781E+07,
2461169.500000000, A.D. 2026-May-09 00:00:00.0000, -1.292360859127784E+08, 4.090270926957146E+08, -5.609733617493747E+07,
2461176.500000000, A.D. 2026-May-16 00:00:00.0000, -1.386331787427324E+08, 4.077145671091933E+08, -5.609986307522723E+07,
2461183.500000000, A.D. 2026-May-23 00:00:00.0000, -1.479482866750973E+08, 4.061605492085980E+08, -5.606908780514695E+07,
2461190.500000000, A.D. 2026-May-30 00:00:00.0000, -1.571768560021430E+08, 4.043686244567230E+08, -5.600539445857142E+07,
2461197.500000000, A.D. 2026-Jun-06 00:00:00.0000, -1.663144554243009E+08, 4.023423667551274E+08, -5.590916745373608E+07,
2461204.500000000, A.D. 2026-Jun-13 00:00:00.0000, -1.753567701701618E+08, 4.000853359721919E+08, -5.578079144382361E+07,
2461211.500000000, A.D. 2026-Jun-20 00:00:00.0000, -1.842995950640849E+08, 3.976010768395323E+08, -5.562065128973322E+07,
2461218.500000000, A.D. 2026-Jun-27 00:00:00.0000, -1.931388282272740E+08, 3.948931188607033E+08, -5.542913196518092E+07,
2461225.500000000, A.D. 2026-Jul-04 00:00:00.0000, -2.018704653999441E+08, 3.919649764400456E+08, -5.520661845490642E+07,
2461232.500000000, A.D. 2026-Jul-11 00:00:00.0000, -2.104905946196141E+08, 3.888201490838382E+08, -5.495349567770074E+07,
2461239.500000000, A.D. 2026-Jul-18 00:00:00.0000, -2.189953911525353E+08, 3.854621216856341E+08, -5.467014843869725E+07,
2461246.500000000, A.D. 2026-Jul-25 00:00:00.0000, -2.273811126439098E+08, 3.818943648863568E+08, -5.435696141125001E+07,
2461253.500000000, A.D. 2026-Aug-01 00:00:00.0000, -2.356440944292050E+08, 3.781203354503034E+08, -5.401431915522029E+07,
2461260.500000000, A.D. 2026-Aug-08 00:00:00.0000, -2.437807447824343E+08, 3.741434766115951E+08, -5.364260619289276E+07,
2461267.500000000, A.D. 2026-Aug-15 00:00:00.0000, -2.517875396777094E+08, 3.699672188329324E+08, -5.324220714247741E+07,
2461274.500000000, A.D. 2026-Aug-22 00:00:00.0000, -2.596610178175606E+08, 3.655949821910543E+08, -5.281350673864117E+07,
2461281.500000000, A.D. 2026-Aug-29 00:00:00.0000, -2.673977782094748E+08, 3.610301790115785E+08, -5.235688964178587E+07,
2461288.500000000, A.D. 2026-Sep-05 00:00:00.0000, -2.749944781471716E+08, 3.562762138794113E+08, -5.187274046483757E+07,
2461295.500000000, A.D. 2026-Sep-12 00:00:00.0000, -2.824478291340294E+08, 3.513364835129288E+08, -5.136144403708173E+07,
$$EOE